#aV2014  4 21  0  0  0.00000000     288 DD+AD WGS84 FIT  NGA
## 1789  86400.00000000   300.00000000 56768 0.0000000000000
+   32     1  2  3  4  5  6  7  8  9 10 11 12 13 14 15 16 17
+         18 19 20 21 22 23 24 25 26 27 28 29 30 31 32  0  0
+          0  0  0  0  0  0  0  0  0  0  0  0  0  0  0  0  0
+          0  0  0  0  0  0  0  0  0  0  0  0  0  0  0  0  0
+          0  0  0  0  0  0  0  0  0  0  0  0  0  0  0  0  0
++         2  2  2  2  2  2  2  2  2  2  2  2  2  2  2  2  2
++         2  2  2  2  2  2  2  2  2  2  2  2  2  2  2  0  0
++         0  0  0  0  0  0  0  0  0  0  0  0  0  0  0  0  0
++         0  0  0  0  0  0  0  0  0  0  0  0  0  0  0  0  0
++         0  0  0  0  0  0  0  0  0  0  0  0  0  0  0  0  0
%c cc cc ccc ccc cccc cccc cccc cccc ccccc ccccc ccccc ccccc
%c cc cc ccc ccc cccc cccc cccc cccc ccccc ccccc ccccc ccccc
%f  0.0000000  0.000000000  0.00000000000  0.000000000000000
%f  0.0000000  0.000000000  0.00000000000  0.000000000000000
%i    0    0    0    0      0      0      0      0         0
%i    0    0    0    0      0      0      0      0         0
/*      NGA, ST. LOUIS,MO.                                  
/*   EPHEMERIS COMPUTED FROM  1 DAYS OF DATA                
/*   EPOCHA SMOOTHER                                       
/* CCCCCCCCCCCCCCCCCCCCCCCCCCCCCCCCCCCCCCCCCCCCCCCCCCCCCCCCC
*  2014  4 21 14 55  0.00000000
P  1 -15113.906932   2375.067871  21688.774626      9.456218                    
V  1  -7712.206142 -26502.975088  -2337.479832      0.014805                    
P  2  14270.830956  20282.790603  -9871.473677    490.987820                    
V  2   1348.587578  13056.833170  27471.215406      0.021673                    
P  3 -24522.493108  -7585.058070  -7681.113327    354.704859                    
V  3   9239.863038  -2362.980651 -29098.589089      0.049560                    
P  4   6147.683635  25569.394008   2351.776199      6.769094                    
V  4  -4577.482536  -2120.145986  31206.728708      0.001797                    
P  5  13587.338129   7997.364408 -21424.673338   -377.582201                    
V  5 -18257.816908  20097.960980  -3922.314122      0.022668                    
P  6   -143.642620 -18385.167522 -19251.024690   -156.395223                    
V  6  17588.623755 -16536.184622  16010.921355     -0.019784                    
P  7  -8279.734705  17035.384338 -18409.925120    337.794448                    
V  7  -7745.785578 -22350.366320 -17455.399268      0.042511                    
P  8  -3046.913240  23643.882061 -10872.139320     13.049646                    
V  8  -4337.760874 -13665.615375 -28700.109676      0.002339                    
P  9    672.387048  24826.786419  -9685.597009    321.859797                    
V  9  -5177.969200 -10521.752821 -29105.911397      0.029260                    
P 10  -2481.055868  20352.527557 -16989.636556   -122.465635                    
V 10 -16312.406219  13659.901049  19549.302667     -0.013944                    
P 11 -19740.692960  -4476.077564  16809.540951   -482.558566                    
V 11 -10540.996993 -20053.493885 -17013.590974     -0.031604                    
P 12  21055.962572  -7887.208583  13892.220477    200.033649                    
V 12 -11472.850297  13701.183747  25269.722779      0.024340                    
P 13 -17465.722817   7331.930153 -18818.397958      7.446124                    
V 13 -21844.571513  -8765.396212  16827.640589     -0.038249                    
P 14   -539.995323 -15704.383671  21649.174962    179.686060                    
V 14  25808.358366   7689.478822   6140.493943     -0.033514                    
P 15  26385.524400   3697.882096   1964.597514   -175.158855                    
V 15   1865.410283   3731.437675 -30902.703041     -0.021409                    
P 16 -12706.722658  -7933.407578 -22009.097936   -222.164919                    
V 16  20025.822571 -19172.067789  -4307.856276      0.017977                    
P 17   2125.440638  15916.214951  21450.908519    -86.886185                    
V 17 -25719.776972  -6696.360327   7386.257911     -0.030812                    
P 18  15924.944888 -20841.898900   3234.377677    314.606230                    
V 18   5493.991093    118.057093 -30823.264173      0.023249                    
P 19 -25590.120232  -7919.052143    893.995452   -452.360987                    
V 19   -483.656454  -2586.018706 -31532.165149     -0.022732                    
P 20 -20830.113998  10269.263604  12643.130700    181.848077                    
V 20   8035.269893 -14717.716909  24889.649024      0.037392                    
P 21   6178.266266 -19717.068475 -15796.333636   -356.642692                    
V 21   9148.121566  19675.718848 -20645.460472     -0.022126                    
P 22   6060.630328 -21901.810981  13825.313534    228.509084                    
V 22  14062.414713 -10660.160978 -23566.057221      0.029676                    
P 23 -25145.837668    493.370262  -9055.833954    -14.228683                    
V 23 -10606.481795  -5175.607369  28433.411648     -0.031521                    
P 24  16306.099009   3198.569061  20718.997495    -27.105718                    
V 24   7086.736597  25391.542105  -9394.434042     -0.007240                    
P 25  19442.581887 -17689.893228   3187.868120     22.306486                    
V 25  -1049.850762   4682.725076  31842.389809      0.009032                    
P 26  21494.838034  13602.539711  -8811.410208    102.027593                    
V 26 -10209.178836  -1568.012787 -29266.884956     -0.114698                    
P 27 -20796.337147 -12535.076437 -10828.563620    -19.164826                    
V 27  13902.041631    797.658420 -27575.025272      0.010203                    
P 28 -10524.510501  21212.276508  12491.767297    348.992297                    
V 28 -11960.951937   9054.194322 -26883.092428      0.029428                    
P 29  18480.188268  -7235.024179 -17586.729165    527.055835                    
V 29  21096.862999   7723.634240  18991.424172      0.027942                    
P 30  -2890.504187  23864.889088 -11279.178589     -2.486221                    
V 30  -5470.118255 -13463.801391 -27127.368503     -0.034334                    
P 31  -7907.078773 -25113.767836  -1610.864807    334.235826                    
V 31   1852.272221  -2828.421617  32263.692827      0.000532                    
P 32 -17525.669870  -3159.605684  19598.015662   -444.870868                    
V 32  17489.573860 -17882.629825  13334.221533      0.077441                    
EOF
